{"type": "FeatureCollection", "features": [ {"type": "Feature", "properties": {"norad_id": 35191, "name": "FENGYUN 1C DEB", "group": "fengyun-1c-debris", "lat": 66.36253058091168, "lon": -178.91868862404954, "alt_km": 886.1572101984948, "timestamp": "2025-12-24T05:51:19.896351+00:00", "meta": {"OBJECT_NAME": "FENGYUN 1C DEB", "OBJECT_ID": "1999-025DNX", "EPOCH": "2025-12-21T04:49:10.111008", "MEAN_MOTION": 13.91207392, "ECCENTRICITY": 0.01025786, "INCLINATION": 99.0161, "RA_OF_ASC_NODE": 336.856, "ARG_OF_PERICENTER": 185.6565, "MEAN_ANOMALY": 174.3444, "EPHEMERIS_TYPE": 0, "CLASSIFICATION_TYPE": "U", "NORAD_CAT_ID": 35191, "ELEMENT_SET_NO": 999, "REV_AT_EPOCH": 88019, "BSTAR": 7.2115022e-05, "MEAN_MOTION_DOT": 5.2e-07, "MEAN_MOTION_DDOT": 0}, "tle": {"line1": "1 35191U 99025DNX 25355.20081147  .00000052  00000+0  72115-4 0  9993", "line2": "2 35191  99.0161 336.8560 0102578 185.6565 174.3444 13.91207392880197"}}, "geometry": {"type": "Point", "coordinates": [-178.91868862404954, 66.36253058091168]}}, {"type": "Feature", "properties": {"norad_id": 35194, "name": "FENGYUN 1C DEB", "group": "fengyun-1c-debris", "lat": -0.3105353648868055, "lon": 82.52916860885114, "alt_km": 633.2418448860099, "timestamp": "2025-12-24T05:51:19.896361+00:00", "meta": {"OBJECT_NAME": "FENGYUN 1C DEB", "OBJECT_ID": "1999-025DPA", "EPOCH": "2025-12-12T01:09:46.826496", "MEAN_MOTION": 14.60293761, "ECCENTRICITY": 0.01145377, "INCLINATION": 98.9481, "RA_OF_ASC_NODE": 69.3173, "ARG_OF_PERICENTER": 78.0348, "MEAN_ANOMALY": 283.3663, "EPHEMERIS_TYPE": 0, "CLASSIFICATION_TYPE": "U", "NORAD_CAT_ID": 35194, "ELEMENT_SET_NO": 999, "REV_AT_EPOCH": 65380, "BSTAR": 0.0013884757, "MEAN_MOTION_DOT": 7.302e-05, "MEAN_MOTION_DDOT": 0}, "tle": {"line1": "1 35194U 99025DPA 25346.04845864  .00007302  00000+0  13885-2 0  9994", "line2": "2 35194  98.9481  69.3173 0114537  78.0348 283.3663 14.60293761653805"}}, "geometry": {"type": "Point", "coordinates": [82.52916860885114, -0.3105353648868055]}}, {"type": "Feature", "properties": {"norad_id": 35195, "name": "FENGYUN 1C DEB", "group": "fengyun-1c-debris", "lat": -9.331305414121404, "lon": -88.04071093726107, "alt_km": 776.3820251973393, "timestamp": "2025-12-24T05:51:19.896371+00:00", "meta": {"OBJECT_NAME": "FENGYUN 1C DEB", "OBJECT_ID": "1999-025DPB", "EPOCH": "2025-12-22T00:13:11.050752", "MEAN_MOTION": 14.56075871, "ECCENTRICITY": 0.01032816, "INCLINATION": 98.9839, "RA_OF_ASC_NODE": 91.0439, "ARG_OF_PERICENTER": 40.5649, "MEAN_ANOMALY": 320.3184, "EPHEMERIS_TYPE": 0, "CLASSIFICATION_TYPE": "U", "NORAD_CAT_ID": 35195, "ELEMENT_SET_NO": 999, "REV_AT_EPOCH": 91061, "BSTAR": 0.00065824609, "MEAN_MOTION_DOT": 3.061e-05, "MEAN_MOTION_DDOT": 0}, "tle": {"line1": "1 35195U 99025DPB 25356.00915568  .00003061  00000+0  65825-3 0  9991", "line2": "2 35195  98.9839  91.0439 0103281  40.5649 320.3184 14.56075871910612"}}, "geometry": {"type": "Point", "coordinates": [-88.04071093726107, -9.331305414121404]}}, {"type": "Feature", "properties": {"norad_id": 35196, "name": "FENGYUN 1C DEB", "group": "fengyun-1c-debris", "lat": -70.31909775956595, "lon": 168.18933557949154, "alt_km": 737.9286874732516, "timestamp": "2025-12-24T05:51:19.896381+00:00", "meta": {"OBJECT_NAME": "FENGYUN 1C DEB", "OBJECT_ID": "1999-025DPC", "EPOCH": "2025-12-22T19:41:57.202944", "MEAN_MOTION": 14.19826634, "ECCENTRICITY": 0.02138633, "INCLINATION": 98.5348, "RA_OF_ASC_NODE": 11.6406, "ARG_OF_PERICENTER": 309.0699, "MEAN_ANOMALY": 234.7289, "EPHEMERIS_TYPE": 0, "CLASSIFICATION_TYPE": "U", "NORAD_CAT_ID": 35196, "ELEMENT_SET_NO": 999, "REV_AT_EPOCH": 89277, "BSTAR": 0.00075907317, "MEAN_MOTION_DOT": 1.977e-05, "MEAN_MOTION_DDOT": 0}, "tle": {"line1": "1 35196U 99025DPC 25356.82080096  .00001977  00000+0  75907-3 0  9997", "line2": "2 35196  98.5348  11.6406 0213863 309.0699 234.7289 14.19826634892772"}}, "geometry": {"type": "Point", "coordinates": [168.18933557949154, -70.31909775956595]}}, {"type": "Feature", "properties": {"norad_id": 35200, "name": "FENGYUN 1C DEB", "group": "fengyun-1c-debris", "lat": -0.3803363966715674, "lon": -25.661911726481044, "alt_km": 877.3110315030099, "timestamp": "2025-12-24T05:51:19.896391+00:00", "meta": {"OBJECT_NAME": "FENGYUN 1C DEB", "OBJECT_ID": "1999-025DPG", "EPOCH": "2025-12-23T04:54:03.534048", "MEAN_MOTION": 13.41967554, "ECCENTRICITY": 0.03531206, "INCLINATION": 98.8708, "RA_OF_ASC_NODE": 333.3631, "ARG_OF_PERICENTER": 33.9491, "MEAN_ANOMALY": 347.2439, "EPHEMERIS_TYPE": 0, "CLASSIFICATION_TYPE": "U", "NORAD_CAT_ID": 35200, "ELEMENT_SET_NO": 999, "REV_AT_EPOCH": 66044, "BSTAR": 0.00044184468, "MEAN_MOTION_DOT": 3.23e-06, "MEAN_MOTION_DDOT": 0}, "tle": {"line1": "1 35200U 99025DPG 25357.20420757  .00000323  00000+0  44184-3 0  9995", "line2": "2 35200  98.8708 333.3631 0353120  33.9491 347.2439 13.41967554660444"}}, "geometry": {"type": "Point", "coordinates": [-25.661911726481044, -0.3803363966715674]}}, {"type": "Feature", "properties": {"norad_id": 35201, "name": "FENGYUN 1C DEB", "group": "fengyun-1c-debris", "lat": -81.26828306389216, "lon": 93.14945880390775, "alt_km": 860.6890822430469, "timestamp": "2025-12-24T05:51:19.896401+00:00", "meta": {"OBJECT_NAME": "FENGYUN 1C DEB", "OBJECT_ID": "1999-025DPH", "EPOCH": "2025-12-22T19:23:05.889120", "MEAN_MOTION": 14.11056307, "ECCENTRICITY": 0.00061541, "INCLINATION": 98.7076, "RA_OF_ASC_NODE": 5.5368, "ARG_OF_PERICENTER": 217.2349, "MEAN_ANOMALY": 321.3716, "EPHEMERIS_TYPE": 0, "CLASSIFICATION_TYPE": "U", "NORAD_CAT_ID": 35201, "ELEMENT_SET_NO": 999, "REV_AT_EPOCH": 87161, "BSTAR": 6.9856612e-05, "MEAN_MOTION_DOT": 8.3e-07, "MEAN_MOTION_DDOT": 0}, "tle": {"line1": "1 35201U 99025DPH 25356.80770705  .00000083  00000+0  69857-4 0  9990", "line2": "2 35201  98.7076   5.5368 0006154 217.2349 321.3716 14.11056307871615"}}, "geometry": {"type": "Point", "coordinates": [93.14945880390775, -81.26828306389216]}}, {"type": "Feature", "properties": {"norad_id": 35202, "name": "FENGYUN 1C DEB", "group": "fengyun-1c-debris", "lat": -63.017448384831454, "lon": 63.60719029032763, "alt_km": 933.968346950136, "timestamp": "2025-12-24T05:51:19.896411+00:00", "meta": {"OBJECT_NAME": "FENGYUN 1C DEB", "OBJECT_ID": "1999-025DPJ", "EPOCH": "2025-12-16T02:04:31.277568", "MEAN_MOTION": 13.34745262, "ECCENTRICITY": 0.03737817, "INCLINATION": 100.0908, "RA_OF_ASC_NODE": 35.0737, "ARG_OF_PERICENTER": 0.1614, "MEAN_ANOMALY": 359.9571, "EPHEMERIS_TYPE": 0, "CLASSIFICATION_TYPE": "U", "NORAD_CAT_ID": 35202, "ELEMENT_SET_NO": 999, "REV_AT_EPOCH": 57021, "BSTAR": 0.00048107163, "MEAN_MOTION_DOT": 3.14e-06, "MEAN_MOTION_DDOT": 0}, "tle": {"line1": "1 35202U 99025DPJ 25350.08647312  .00000314  00000+0  48107-3 0  9993", "line2": "2 35202 100.0908  35.0737 0373781   0.1614 359.9571 13.34745262570219"}}, "geometry": {"type": "Point", "coordinates": [63.60719029032763, -63.017448384831454]}}, {"type": "Feature", "properties": {"norad_id": 35203, "name": "FENGYUN 1C DEB", "group": "fengyun-1c-debris", "lat": 34.448846621957394, "lon": -41.30098610855114, "alt_km": 1195.2621236727118, "timestamp": "2025-12-24T05:51:19.896421+00:00", "meta": {"OBJECT_NAME": "FENGYUN 1C DEB", "OBJECT_ID": "1999-025DPK", "EPOCH": "2025-12-22T17:27:58.469184", "MEAN_MOTION": 13.26459504, "ECCENTRICITY": 0.05116378, "INCLINATION": 102.0716, "RA_OF_ASC_NODE": 325.3726, "ARG_OF_PERICENTER": 137.243, "MEAN_ANOMALY": 226.9688, "EPHEMERIS_TYPE": 0, "CLASSIFICATION_TYPE": "U", "NORAD_CAT_ID": 35203, "ELEMENT_SET_NO": 999, "REV_AT_EPOCH": 59783, "BSTAR": 0.0019832068, "MEAN_MOTION_DOT": 1.733e-05, "MEAN_MOTION_DDOT": 0}, "tle": {"line1": "1 35203U 99025DPK 25356.72776006  .00001733  00000+0  19832-2 0  9992", "line2": "2 35203 102.0716 325.3726 0511637 137.2430 226.9688 13.26459504597835"}}, "geometry": {"type": "Point", "coordinates": [-41.30098610855114, 34.448846621957394]}}, {"type": "Feature", "properties": {"norad_id": 35204, "name": "FENGYUN 1C DEB", "group": "fengyun-1c-debris", "lat": -54.61041513185114, "lon": -159.5512668715899, "alt_km": 708.9612239326252, "timestamp": "2025-12-24T05:51:19.896431+00:00", "meta": {"OBJECT_NAME": "FENGYUN 1C DEB", "OBJECT_ID": "1999-025DPL", "EPOCH": "2025-12-21T09:03:39.055968", "MEAN_MOTION": 14.48905432, "ECCENTRICITY": 0.00394837, "INCLINATION": 99.0069, "RA_OF_ASC_NODE": 184.4907, "ARG_OF_PERICENTER": 298.2194, "MEAN_ANOMALY": 182.9509, "EPHEMERIS_TYPE": 0, "CLASSIFICATION_TYPE": "U", "NORAD_CAT_ID": 35204, "ELEMENT_SET_NO": 999, "REV_AT_EPOCH": 91055, "BSTAR": 0.0016476709, "MEAN_MOTION_DOT": 6.251e-05, "MEAN_MOTION_DDOT": 0}, "tle": {"line1": "1 35204U 99025DPL 25355.37753537  .00006251  00000+0  16477-2 0  9999", "line2": "2 35204  99.0069 184.4907 0039483 298.2194 182.9509 14.48905432910558"}}, "geometry": {"type": "Point", "coordinates": [-159.5512668715899, -54.61041513185114]}}, {"type": "Feature", "properties": {"norad_id": 35207, "name": "FENGYUN 1C DEB", "group": "fengyun-1c-debris", "lat": 46.25371118858959, "lon": -73.77001092191527, "alt_km": 701.1364393086606, "timestamp": "2025-12-24T05:51:19.896460+00:00", "meta": {"OBJECT_NAME": "FENGYUN 1C DEB", "OBJECT_ID": "1999-025DPP", "EPOCH": "2025-12-18T12:18:35.176032", "MEAN_MOTION": 14.55542717, "ECCENTRICITY": 0.00552305, "INCLINATION": 98.6905, "RA_OF_ASC_NODE": 91.073, "ARG_OF_PERICENTER": 237.6836, "MEAN_ANOMALY": 121.9005, "EPHEMERIS_TYPE": 0, "CLASSIFICATION_TYPE": "U", "NORAD_CAT_ID": 35207, "ELEMENT_SET_NO": 999, "REV_AT_EPOCH": 64988, "BSTAR": 0.0018220991, "MEAN_MOTION_DOT": 8.059e-05, "MEAN_MOTION_DDOT": 0}, "tle": {"line1": "1 35207U 99025DPP 25352.51290713  .00008059  00000+0  18221-2 0  9994", "line2": "2 35207  98.6905  91.0730 0055230 237.6836 121.9005 14.55542717649880"}}, "geometry": {"type": "Point", "coordinates": [-73.77001092191527, 46.25371118858959]}}]}